[
  {
    "COMMENT": "GENERATED VIA SPACETRACK.ORG API",
    "ORIGINATOR": "18 SPCS",
    "NORAD_CAT_ID": "25260",
    "OBJECT_NAME": "SPOT 4",
    "OBJECT_TYPE": "PAYLOAD",
    "CLASSIFICATION_TYPE": "U",
    "INTLDES": "98017A",
    "EPOCH": "2023-06-02 06:13:37",
    "EPOCH_MICROSECONDS": "549632",
    "MEAN_MOTION": "14.54188734",
    "ECCENTRICITY": "0.0014005",
    "INCLINATION": "98.2628",
    "RA_OF_ASC_NODE": "246.4259",
    "ARG_OF_PERICENTER": "58.6026",
    "MEAN_ANOMALY": "301.6538",
    "EPHEMERIS_TYPE": "0",
    "ELEMENT_SET_NO": "999",
    "REV_AT_EPOCH": "31798",
    "BSTAR": "0.00010821",
    "MEAN_MOTION_DOT": "0.00000413",
    "MEAN_MOTION_DDOT": "0",
    "FILE": "3923259",
    "TLE_LINE0": "0 SPOT 4",
    "TLE_LINE1": "1 25260U 98017A   23153.25946238  .00000413  00000-0  10821-3 0  9996",
    "TLE_LINE2": "2 25260  98.2628 246.4259 0014005  58.6026 301.6538 14.54188734317980",
    "OBJECT_ID": "1998-017A",
    "OBJECT_NUMBER": "25260",
    "SEMIMAJOR_AXIS": "7090.137",
    "PERIOD": "99.024",
    "APOGEE": "721.932",
    "PERIGEE": "702.073",
    "DECAYED": "0"
  },
  {
    "COMMENT": "GENERATED VIA SPACETRACK.ORG API",
    "ORIGINATOR": "18 SPCS",
    "NORAD_CAT_ID": "25260",
    "OBJECT_NAME": "SPOT 4",
    "OBJECT_TYPE": "PAYLOAD",
    "CLASSIFICATION_TYPE": "U",
    "INTLDES": "98017A",
    "EPOCH": "2023-06-02 06:13:37",
    "EPOCH_MICROSECONDS": "549632",
    "MEAN_MOTION": "14.54188734",
    "ECCENTRICITY": "0.0014005",
    "INCLINATION": "98.2628",
    "RA_OF_ASC_NODE": "246.4259",
    "ARG_OF_PERICENTER": "58.6026",
    "MEAN_ANOMALY": "301.6538",
    "EPHEMERIS_TYPE": "0",
    "ELEMENT_SET_NO": "999",
    "REV_AT_EPOCH": "31774",
    "BSTAR": "0.00010821",
    "MEAN_MOTION_DOT": "0.00000413",
    "MEAN_MOTION_DDOT": "0",
    "FILE": "3923342",
    "TLE_LINE0": "0 SPOT 4",
    "TLE_LINE1": "1 25260U 98017A   23153.25946238  .00000413  00000-0  10821-3 0  9996",
    "TLE_LINE2": "2 25260  98.2628 246.4259 0014005  58.6026 301.6538 14.54188734317744",
    "OBJECT_ID": "1998-017A",
    "OBJECT_NUMBER": "25260",
    "SEMIMAJOR_AXIS": "7090.137",
    "PERIOD": "99.024",
    "APOGEE": "721.932",
    "PERIGEE": "702.073",
    "DECAYED": "0"
  },
  {
    "COMMENT": "GENERATED VIA SPACETRACK.ORG API",
    "ORIGINATOR": "18 SPCS",
    "NORAD_CAT_ID": "25260",
    "OBJECT_NAME": "SPOT 4",
    "OBJECT_TYPE": "PAYLOAD",
    "CLASSIFICATION_TYPE": "U",
    "INTLDES": "98017A",
    "EPOCH": "2023-06-02 19:26:17",
    "EPOCH_MICROSECONDS": "165760",
    "MEAN_MOTION": "14.541895",
    "ECCENTRICITY": "0.0013986",
    "INCLINATION": "98.2629",
    "RA_OF_ASC_NODE": "246.9694",
    "ARG_OF_PERICENTER": "57.0363",
    "MEAN_ANOMALY": "303.2176",
    "EPHEMERIS_TYPE": "0",
    "ELEMENT_SET_NO": "999",
    "REV_AT_EPOCH": "31806",
    "BSTAR": "0.00011821",
    "MEAN_MOTION_DOT": "0.00000456",
    "MEAN_MOTION_DDOT": "0",
    "FILE": "3923514",
    "TLE_LINE0": "0 SPOT 4",
    "TLE_LINE1": "1 25260U 98017A   23153.80992090  .00000456  00000-0  11821-3 0  9992",
    "TLE_LINE2": "2 25260  98.2629 246.9694 0013986  57.0363 303.2176 14.54189500318061",
    "OBJECT_ID": "1998-017A",
    "OBJECT_NUMBER": "25260",
    "SEMIMAJOR_AXIS": "7090.135",
    "PERIOD": "99.024",
    "APOGEE": "721.916",
    "PERIGEE": "702.084",
    "DECAYED": "0"
  },
  {
    "COMMENT": "GENERATED VIA SPACETRACK.ORG API",
    "ORIGINATOR": "18 SPCS",
    "NORAD_CAT_ID": "25260",
    "OBJECT_NAME": "SPOT 4",
    "OBJECT_TYPE": "PAYLOAD",
    "CLASSIFICATION_TYPE": "U",
    "INTLDES": "98017A",
    "EPOCH": "2023-06-03 05:20:46",
    "EPOCH_MICROSECONDS": "879584",
    "MEAN_MOTION": "14.54189858",
    "ECCENTRICITY": "0.0013965",
    "INCLINATION": "98.2629",
    "RA_OF_ASC_NODE": "247.3771",
    "ARG_OF_PERICENTER": "55.8524",
    "MEAN_ANOMALY": "304.3995",
    "EPHEMERIS_TYPE": "0",
    "ELEMENT_SET_NO": "999",
    "REV_AT_EPOCH": "31812",
    "BSTAR": "0.00011893",
    "MEAN_MOTION_DOT": "0.00000459",
    "MEAN_MOTION_DDOT": "0",
    "FILE": "3923988",
    "TLE_LINE0": "0 SPOT 4",
    "TLE_LINE1": "1 25260U 98017A   23154.22276481  .00000459  00000-0  11893-3 0  9990",
    "TLE_LINE2": "2 25260  98.2629 247.3771 0013965  55.8524 304.3995 14.54189858318128",
    "OBJECT_ID": "1998-017A",
    "OBJECT_NUMBER": "25260",
    "SEMIMAJOR_AXIS": "7090.134",
    "PERIOD": "99.024",
    "APOGEE": "721.900",
    "PERIGEE": "702.097",
    "DECAYED": "0"
  },
  {
    "COMMENT": "GENERATED VIA SPACETRACK.ORG API",
    "ORIGINATOR": "18 SPCS",
    "NORAD_CAT_ID": "25260",
    "OBJECT_NAME": "SPOT 4",
    "OBJECT_TYPE": "PAYLOAD",
    "CLASSIFICATION_TYPE": "U",
    "INTLDES": "98017A",
    "EPOCH": "2023-06-03 05:20:46",
    "EPOCH_MICROSECONDS": "879584",
    "MEAN_MOTION": "14.54189858",
    "ECCENTRICITY": "0.0013965",
    "INCLINATION": "98.2629",
    "RA_OF_ASC_NODE": "247.3771",
    "ARG_OF_PERICENTER": "55.8524",
    "MEAN_ANOMALY": "304.3995",
    "EPHEMERIS_TYPE": "0",
    "ELEMENT_SET_NO": "999",
    "REV_AT_EPOCH": "31788",
    "BSTAR": "0.00011893",
    "MEAN_MOTION_DOT": "0.00000459",
    "MEAN_MOTION_DDOT": "0",
    "FILE": "3924076",
    "TLE_LINE0": "0 SPOT 4",
    "TLE_LINE1": "1 25260U 98017A   23154.22276481  .00000459  00000-0  11893-3 0  9990",
    "TLE_LINE2": "2 25260  98.2629 247.3771 0013965  55.8524 304.3995 14.54189858317880",
    "OBJECT_ID": "1998-017A",
    "OBJECT_NUMBER": "25260",
    "SEMIMAJOR_AXIS": "7090.134",
    "PERIOD": "99.024",
    "APOGEE": "721.900",
    "PERIGEE": "702.097",
    "DECAYED": "0"
  },
  {
    "COMMENT": "GENERATED VIA SPACETRACK.ORG API",
    "ORIGINATOR": "18 SPCS",
    "NORAD_CAT_ID": "25260",
    "OBJECT_NAME": "SPOT 4",
    "OBJECT_TYPE": "PAYLOAD",
    "CLASSIFICATION_TYPE": "U",
    "INTLDES": "98017A",
    "EPOCH": "2023-06-03 18:33:26",
    "EPOCH_MICROSECONDS": "463744",
    "MEAN_MOTION": "14.54190262",
    "ECCENTRICITY": "0.0013947",
    "INCLINATION": "98.2631",
    "RA_OF_ASC_NODE": "247.9207",
    "ARG_OF_PERICENTER": "54.2901",
    "MEAN_ANOMALY": "305.9591",
    "EPHEMERIS_TYPE": "0",
    "ELEMENT_SET_NO": "999",
    "REV_AT_EPOCH": "31820",
    "BSTAR": "0.00011284",
    "MEAN_MOTION_DOT": "0.00000433",
    "MEAN_MOTION_DDOT": "0",
    "FILE": "3924269",
    "TLE_LINE0": "0 SPOT 4",
    "TLE_LINE1": "1 25260U 98017A   23154.77322296  .00000433  00000-0  11284-3 0  9992",
    "TLE_LINE2": "2 25260  98.2631 247.9207 0013947  54.2901 305.9591 14.54190262318202",
    "OBJECT_ID": "1998-017A",
    "OBJECT_NUMBER": "25260",
    "SEMIMAJOR_AXIS": "7090.133",
    "PERIOD": "99.024",
    "APOGEE": "721.886",
    "PERIGEE": "702.109",
    "DECAYED": "0"
  },
  {
    "COMMENT": "GENERATED VIA SPACETRACK.ORG API",
    "ORIGINATOR": "18 SPCS",
    "NORAD_CAT_ID": "25260",
    "OBJECT_NAME": "SPOT 4",
    "OBJECT_TYPE": "PAYLOAD",
    "CLASSIFICATION_TYPE": "U",
    "INTLDES": "98017A",
    "EPOCH": "2023-06-03 20:12:31",
    "EPOCH_MICROSECONDS": "409280",
    "MEAN_MOTION": "14.54190365",
    "ECCENTRICITY": "0.0013948",
    "INCLINATION": "98.2631",
    "RA_OF_ASC_NODE": "247.9886",
    "ARG_OF_PERICENTER": "54.1017",
    "MEAN_ANOMALY": "306.1472",
    "EPHEMERIS_TYPE": "0",
    "ELEMENT_SET_NO": "999",
    "REV_AT_EPOCH": "31797",
    "BSTAR": "0.00011448",
    "MEAN_MOTION_DOT": "0.0000044",
    "MEAN_MOTION_DDOT": "0",
    "FILE": "3924324",
    "TLE_LINE0": "0 SPOT 4",
    "TLE_LINE1": "1 25260U 98017A   23154.84203020  .00000440  00000-0  11448-3 0  9993",
    "TLE_LINE2": "2 25260  98.2631 247.9886 0013948  54.1017 306.1472 14.54190365317971",
    "OBJECT_ID": "1998-017A",
    "OBJECT_NUMBER": "25260",
    "SEMIMAJOR_AXIS": "7090.132",
    "PERIOD": "99.024",
    "APOGEE": "721.887",
    "PERIGEE": "702.108",
    "DECAYED": "0"
  },
  {
    "COMMENT": "GENERATED VIA SPACETRACK.ORG API",
    "ORIGINATOR": "18 SPCS",
    "NORAD_CAT_ID": "25260",
    "OBJECT_NAME": "SPOT 4",
    "OBJECT_TYPE": "PAYLOAD",
    "CLASSIFICATION_TYPE": "U",
    "INTLDES": "98017A",
    "EPOCH": "2023-06-04 02:48:51",
    "EPOCH_MICROSECONDS": "192288",
    "MEAN_MOTION": "14.5419062",
    "ECCENTRICITY": "0.0013932",
    "INCLINATION": "98.2631",
    "RA_OF_ASC_NODE": "248.2604",
    "ARG_OF_PERICENTER": "53.3146",
    "MEAN_ANOMALY": "306.9328",
    "EPHEMERIS_TYPE": "0",
    "ELEMENT_SET_NO": "999",
    "REV_AT_EPOCH": "31825",
    "BSTAR": "0.00011404",
    "MEAN_MOTION_DOT": "0.00000438",
    "MEAN_MOTION_DDOT": "0",
    "FILE": "3924533",
    "TLE_LINE0": "0 SPOT 4",
    "TLE_LINE1": "1 25260U 98017A   23155.11725917  .00000438  00000-0  11404-3 0  9997",
    "TLE_LINE2": "2 25260  98.2631 248.2604 0013932  53.3146 306.9328 14.54190620318254",
    "OBJECT_ID": "1998-017A",
    "OBJECT_NUMBER": "25260",
    "SEMIMAJOR_AXIS": "7090.131",
    "PERIOD": "99.024",
    "APOGEE": "721.874",
    "PERIGEE": "702.118",
    "DECAYED": "0"
  },
  {
    "COMMENT": "GENERATED VIA SPACETRACK.ORG API",
    "ORIGINATOR": "18 SPCS",
    "NORAD_CAT_ID": "25260",
    "OBJECT_NAME": "SPOT 4",
    "OBJECT_TYPE": "PAYLOAD",
    "CLASSIFICATION_TYPE": "U",
    "INTLDES": "98017A",
    "EPOCH": "2023-06-04 07:46:06",
    "EPOCH_MICROSECONDS": "28896",
    "MEAN_MOTION": "14.54190809",
    "ECCENTRICITY": "0.0013918",
    "INCLINATION": "98.2631",
    "RA_OF_ASC_NODE": "248.4642",
    "ARG_OF_PERICENTER": "52.7177",
    "MEAN_ANOMALY": "307.5286",
    "EPHEMERIS_TYPE": "0",
    "ELEMENT_SET_NO": "999",
    "REV_AT_EPOCH": "31828",
    "BSTAR": "0.00011357",
    "MEAN_MOTION_DOT": "0.00000436",
    "MEAN_MOTION_DDOT": "0",
    "FILE": "3924797",
    "TLE_LINE0": "0 SPOT 4",
    "TLE_LINE1": "1 25260U 98017A   23155.32368089  .00000436  00000-0  11357-3 0  9998",
    "TLE_LINE2": "2 25260  98.2631 248.4642 0013918  52.7177 307.5286 14.54190809318281",
    "OBJECT_ID": "1998-017A",
    "OBJECT_NUMBER": "25260",
    "SEMIMAJOR_AXIS": "7090.131",
    "PERIOD": "99.024",
    "APOGEE": "721.864",
    "PERIGEE": "702.128",
    "DECAYED": "0"
  }
]